[{"OBJECT_NAME":"SKYSAT-A","OBJECT_ID":"2013-066C","EPOCH":"2026-03-28T16:33:30.381408","MEAN_MOTION":15.12485678,"ECCENTRICITY":0.002043,"INCLINATION":97.3915,"RA_OF_ASC_NODE":139.6411,"ARG_OF_PERICENTER":229.8979,"MEAN_ANOMALY":130.0462,"EPHEMERIS_TYPE":0,"CLASSIFICATION_TYPE":"U","NORAD_CAT_ID":39418,"ELEMENT_SET_NO":999,"REV_AT_EPOCH":67631,"BSTAR":0.00022567,"MEAN_MOTION_DOT":3.882e-5,"MEAN_MOTION_DDOT":0},{"OBJECT_NAME":"SKYSAT-B","OBJECT_ID":"2014-037D","EPOCH":"2026-03-28T19:55:28.178400","MEAN_MOTION":14.87796013,"ECCENTRICITY":0.0005685,"INCLINATION":98.3759,"RA_OF_ASC_NODE":42.267,"ARG_OF_PERICENTER":165.362,"MEAN_ANOMALY":194.776,"EPHEMERIS_TYPE":0,"CLASSIFICATION_TYPE":"U","NORAD_CAT_ID":40072,"ELEMENT_SET_NO":999,"REV_AT_EPOCH":63401,"BSTAR":0.0002038,"MEAN_MOTION_DOT":1.8e-5,"MEAN_MOTION_DDOT":0},{"OBJECT_NAME":"SKYSAT-C1","OBJECT_ID":"2016-040C","EPOCH":"2026-03-28T16:11:21.444864","MEAN_MOTION":15.34895249,"ECCENTRICITY":0.0001559,"INCLINATION":96.967,"RA_OF_ASC_NODE":123.7981,"ARG_OF_PERICENTER":9.695,"MEAN_ANOMALY":350.4324,"EPHEMERIS_TYPE":0,"CLASSIFICATION_TYPE":"U","NORAD_CAT_ID":41601,"ELEMENT_SET_NO":999,"REV_AT_EPOCH":54551,"BSTAR":0.00032038,"MEAN_MOTION_DOT":0.00010772,"MEAN_MOTION_DDOT":0},{"OBJECT_NAME":"SKYSAT-C4","OBJECT_ID":"2016-058B","EPOCH":"2026-03-28T19:37:42.003264","MEAN_MOTION":15.46043777,"ECCENTRICITY":0.0002537,"INCLINATION":96.9265,"RA_OF_ASC_NODE":113.0661,"ARG_OF_PERICENTER":129.9437,"MEAN_ANOMALY":230.2037,"EPHEMERIS_TYPE":0,"CLASSIFICATION_TYPE":"U","NORAD_CAT_ID":41771,"ELEMENT_SET_NO":999,"REV_AT_EPOCH":53304,"BSTAR":0.00039989,"MEAN_MOTION_DOT":0.00019476,"MEAN_MOTION_DDOT":0},{"OBJECT_NAME":"SKYSAT-C5","OBJECT_ID":"2016-058C","EPOCH":"2026-03-28T20:54:48.923712","MEAN_MOTION":15.34066727,"ECCENTRICITY":0.0001402,"INCLINATION":97.0581,"RA_OF_ASC_NODE":132.1018,"ARG_OF_PERICENTER":195.4596,"MEAN_ANOMALY":164.6605,"EPHEMERIS_TYPE":0,"CLASSIFICATION_TYPE":"U","NORAD_CAT_ID":41772,"ELEMENT_SET_NO":999,"REV_AT_EPOCH":53143,"BSTAR":0.00030322,"MEAN_MOTION_DOT":9.924e-5,"MEAN_MOTION_DDOT":0},{"OBJECT_NAME":"SKYSAT-C2","OBJECT_ID":"2016-058D","EPOCH":"2026-03-28T19:29:40.293024","MEAN_MOTION":15.4020832,"ECCENTRICITY":0.0003066,"INCLINATION":97.0259,"RA_OF_ASC_NODE":113.0069,"ARG_OF_PERICENTER":21.5261,"MEAN_ANOMALY":338.6115,"EPHEMERIS_TYPE":0,"CLASSIFICATION_TYPE":"U","NORAD_CAT_ID":41773,"ELEMENT_SET_NO":999,"REV_AT_EPOCH":53267,"BSTAR":0.00037245,"MEAN_MOTION_DOT":0.00014896,"MEAN_MOTION_DDOT":0},{"OBJECT_NAME":"SKYSAT-C3","OBJECT_ID":"2016-058E","EPOCH":"2026-03-28T19:29:32.714016","MEAN_MOTION":15.49179061,"ECCENTRICITY":0.000243,"INCLINATION":96.9145,"RA_OF_ASC_NODE":121.8811,"ARG_OF_PERICENTER":114.39,"MEAN_ANOMALY":245.7606,"EPHEMERIS_TYPE":0,"CLASSIFICATION_TYPE":"U","NORAD_CAT_ID":41774,"ELEMENT_SET_NO":999,"REV_AT_EPOCH":53365,"BSTAR":0.00046617,"MEAN_MOTION_DOT":0.00025343,"MEAN_MOTION_DDOT":0},{"OBJECT_NAME":"SKYSAT-C11","OBJECT_ID":"2017-068A","EPOCH":"2026-03-28T15:50:18.631968","MEAN_MOTION":15.53609465,"ECCENTRICITY":4.31e-5,"INCLINATION":97.423,"RA_OF_ASC_NODE":233.2967,"ARG_OF_PERICENTER":155.7392,"MEAN_ANOMALY":204.3882,"EPHEMERIS_TYPE":0,"CLASSIFICATION_TYPE":"U","NORAD_CAT_ID":42987,"ELEMENT_SET_NO":999,"REV_AT_EPOCH":47072,"BSTAR":0.00049661,"MEAN_MOTION_DOT":0.00031631,"MEAN_MOTION_DDOT":0},{"OBJECT_NAME":"SKYSAT-C10","OBJECT_ID":"2017-068B","EPOCH":"2026-03-28T12:45:50.844672","MEAN_MOTION":15.33117048,"ECCENTRICITY":0.0001032,"INCLINATION":97.4365,"RA_OF_ASC_NODE":223.7423,"ARG_OF_PERICENTER":107.0145,"MEAN_ANOMALY":253.121,"EPHEMERIS_TYPE":0,"CLASSIFICATION_TYPE":"U","NORAD_CAT_ID":42988,"ELEMENT_SET_NO":999,"REV_AT_EPOCH":46999,"BSTAR":0.00041562,"MEAN_MOTION_DOT":0.00013227,"MEAN_MOTION_DDOT":0},{"OBJECT_NAME":"SKYSAT-C9","OBJECT_ID":"2017-068C","EPOCH":"2026-03-28T15:09:12.252384","MEAN_MOTION":15.39484096,"ECCENTRICITY":0.0009745,"INCLINATION":97.4288,"RA_OF_ASC_NODE":224.0418,"ARG_OF_PERICENTER":72.1126,"MEAN_ANOMALY":288.1182,"EPHEMERIS_TYPE":0,"CLASSIFICATION_TYPE":"U","NORAD_CAT_ID":42989,"ELEMENT_SET_NO":999,"REV_AT_EPOCH":47035,"BSTAR":0.00044582,"MEAN_MOTION_DOT":0.0001745,"MEAN_MOTION_DDOT":0},{"OBJECT_NAME":"SKYSAT-C8","OBJECT_ID":"2017-068D","EPOCH":"2026-03-28T21:09:11.840256","MEAN_MOTION":15.35265023,"ECCENTRICITY":0.0001211,"INCLINATION":97.4383,"RA_OF_ASC_NODE":223.5992,"ARG_OF_PERICENTER":95.4936,"MEAN_ANOMALY":264.6445,"EPHEMERIS_TYPE":0,"CLASSIFICATION_TYPE":"U","NORAD_CAT_ID":42990,"ELEMENT_SET_NO":999,"REV_AT_EPOCH":46998,"BSTAR":0.00041895,"MEAN_MOTION_DOT":0.00014274,"MEAN_MOTION_DDOT":0},{"OBJECT_NAME":"SKYSAT-C7","OBJECT_ID":"2017-068E","EPOCH":"2026-03-28T08:24:54.590976","MEAN_MOTION":15.35201703,"ECCENTRICITY":0.00066897,"INCLINATION":97.4395,"RA_OF_ASC_NODE":224.0477,"ARG_OF_PERICENTER":47.1615,"MEAN_ANOMALY":313.019,"EPHEMERIS_TYPE":0,"CLASSIFICATION_TYPE":"U","NORAD_CAT_ID":42991,"ELEMENT_SET_NO":999,"REV_AT_EPOCH":46996,"BSTAR":0.0004055094,"MEAN_MOTION_DOT":0.00013794,"MEAN_MOTION_DDOT":0},{"OBJECT_NAME":"SKYSAT-C6","OBJECT_ID":"2017-068F","EPOCH":"2026-03-28T15:15:00.071136","MEAN_MOTION":15.32936921,"ECCENTRICITY":0.0003772,"INCLINATION":97.4429,"RA_OF_ASC_NODE":224.5639,"ARG_OF_PERICENTER":82.7165,"MEAN_ANOMALY":277.4506,"EPHEMERIS_TYPE":0,"CLASSIFICATION_TYPE":"U","NORAD_CAT_ID":42992,"ELEMENT_SET_NO":999,"REV_AT_EPOCH":46997,"BSTAR":0.0004103,"MEAN_MOTION_DOT":0.00012984,"MEAN_MOTION_DDOT":0},{"OBJECT_NAME":"SKYSAT-C12","OBJECT_ID":"2018-099AR","EPOCH":"2026-03-28T20:28:47.551296","MEAN_MOTION":15.4629333,"ECCENTRICITY":0.0006275,"INCLINATION":96.9355,"RA_OF_ASC_NODE":114.4369,"ARG_OF_PERICENTER":91.5851,"MEAN_ANOMALY":268.6118,"EPHEMERIS_TYPE":0,"CLASSIFICATION_TYPE":"U","NORAD_CAT_ID":43797,"ELEMENT_SET_NO":999,"REV_AT_EPOCH":40943,"BSTAR":0.00040945,"MEAN_MOTION_DOT":0.00020129,"MEAN_MOTION_DDOT":0},{"OBJECT_NAME":"SKYSAT-C13","OBJECT_ID":"2018-099AW","EPOCH":"2026-03-28T16:23:19.954176","MEAN_MOTION":15.80487986,"ECCENTRICITY":0.0005511,"INCLINATION":96.9362,"RA_OF_ASC_NODE":135.4049,"ARG_OF_PERICENTER":148.1924,"MEAN_ANOMALY":211.9679,"EPHEMERIS_TYPE":0,"CLASSIFICATION_TYPE":"U","NORAD_CAT_ID":43802,"ELEMENT_SET_NO":999,"REV_AT_EPOCH":41016,"BSTAR":0.00063,"MEAN_MOTION_DOT":0.00120491,"MEAN_MOTION_DDOT":0},{"OBJECT_NAME":"FLOCK 4Q-16","OBJECT_ID":"2023-174R","EPOCH":"2026-03-28T19:03:12.908160","MEAN_MOTION":15.45747434,"ECCENTRICITY":0.0007917,"INCLINATION":97.384,"RA_OF_ASC_NODE":174.2536,"ARG_OF_PERICENTER":100.6901,"MEAN_ANOMALY":259.524,"EPHEMERIS_TYPE":0,"CLASSIFICATION_TYPE":"U","NORAD_CAT_ID":58271,"ELEMENT_SET_NO":999,"REV_AT_EPOCH":13314,"BSTAR":0.00056342,"MEAN_MOTION_DOT":0.00027245,"MEAN_MOTION_DDOT":0},{"OBJECT_NAME":"FLOCK 4Q-11","OBJECT_ID":"2023-174T","EPOCH":"2026-03-28T19:06:32.035104","MEAN_MOTION":15.46168507,"ECCENTRICITY":0.0007505,"INCLINATION":97.3881,"RA_OF_ASC_NODE":174.7593,"ARG_OF_PERICENTER":98.7687,"MEAN_ANOMALY":261.4413,"EPHEMERIS_TYPE":0,"CLASSIFICATION_TYPE":"U","NORAD_CAT_ID":58273,"ELEMENT_SET_NO":999,"REV_AT_EPOCH":13315,"BSTAR":0.00059383,"MEAN_MOTION_DOT":0.00029142,"MEAN_MOTION_DDOT":0}]
