SKYSAT-A                
1 39418U 13066C   26087.68993497  .00003882  00000+0  22567-3 0  9994
2 39418  97.3915 139.6411 0020430 229.8979 130.0462 15.12485678676317
SKYSAT-B                
1 40072U 14037D   26087.83018725  .00001800  00000+0  20380-3 0  9999
2 40072  98.3759  42.2670 0005685 165.3620 194.7760 14.87796013634018
SKYSAT-C1               
1 41601U 16040C   26087.67455376  .00010772  00000+0  32038-3 0  9994
2 41601  96.9670 123.7981 0001559   9.6950 350.4324 15.34895249545512
SKYSAT-C4               
1 41771U 16058B   26087.81784726  .00019476  00000+0  39989-3 0  9993
2 41771  96.9265 113.0661 0002537 129.9437 230.2037 15.46043777533045
SKYSAT-C5               
1 41772U 16058C   26087.87139958  .00009924  00000+0  30322-3 0  9990
2 41772  97.0581 132.1018 0001402 195.4596 164.6605 15.34066727531430
SKYSAT-C2               
1 41773U 16058D   26087.81227191  .00014896  00000+0  37245-3 0  9997
2 41773  97.0259 113.0069 0003066  21.5261 338.6115 15.40208320532673
SKYSAT-C3               
1 41774U 16058E   26087.81218419  .00025343  00000+0  46617-3 0  9993
2 41774  96.9145 121.8811 0002430 114.3900 245.7606 15.49179061533653
SKYSAT-C11              
1 42987U 17068A   26087.65993787  .00031631  00000+0  49661-3 0  9991
2 42987  97.4230 233.2967 0000431 155.7392 204.3882 15.53609465470720
SKYSAT-C10              
1 42988U 17068B   26087.53183848  .00013227  00000+0  41562-3 0  9991
2 42988  97.4365 223.7423 0001032 107.0145 253.1210 15.33117048469998
SKYSAT-C9               
1 42989U 17068C   26087.63139181  .00017450  00000+0  44582-3 0  9991
2 42989  97.4288 224.0418 0009745  72.1126 288.1182 15.39484096470355
SKYSAT-C8               
1 42990U 17068D   26087.88138704  .00014274  00000+0  41895-3 0  9995
2 42990  97.4383 223.5992 0001211  95.4936 264.6445 15.35265023469982
SKYSAT-C7               
1 42991U 17068E   26087.35063184  .00013794  00000+0  40551-3 0  9991
2 42991  97.4395 224.0477 0006689  47.1615 313.0190 15.35201703469961
SKYSAT-C6               
1 42992U 17068F   26087.63541749  .00012984  00000+0  41030-3 0  9994
2 42992  97.4429 224.5639 0003772  82.7165 277.4506 15.32936921469979
SKYSAT-C12              
1 43797U 18099AR  26087.85332814  .00020129  00000+0  40945-3 0  9992
2 43797  96.9355 114.4369 0006275  91.5851 268.6118 15.46293330409434
SKYSAT-C13              
1 43802U 18099AW  26087.68286984  .00120491  00000+0  63000-3 0  9996
2 43802  96.9362 135.4049 0005511 148.1924 211.9679 15.80487986410164
FLOCK 4Q-16             
1 58271U 23174R   26087.79389940  .00027245  00000+0  56342-3 0  9994
2 58271  97.3840 174.2536 0007917 100.6901 259.5240 15.45747434133148
FLOCK 4Q-11             
1 58273U 23174T   26087.79620411  .00029142  00000+0  59383-3 0  9993
2 58273  97.3881 174.7593 0007505  98.7687 261.4413 15.46168507133158
